{
    "links": {
        "self": "http://www.neowsapp.com/rest/v1/neo/3802068?api_key=iIulBulltgU6a56xZRHN4H3l9WmuAYTsLGpBGhQ2"
    },
    "id": "3802068",
    "neo_reference_id": "3802068",
    "name": "(2018 FE4)",
    "designation": "2018 FE4",
    "nasa_jpl_url": "http://ssd.jpl.nasa.gov/sbdb.cgi?sstr=3802068",
    "absolute_magnitude_h": 24.7,
    "estimated_diameter": {
        "kilometers": {
            "estimated_diameter_min": 0.0305179233,
            "estimated_diameter_max": 0.0682401509
        },
        "meters": {
            "estimated_diameter_min": 30.5179232594,
            "estimated_diameter_max": 68.2401509401
        },
        "miles": {
            "estimated_diameter_min": 0.0189629525,
            "estimated_diameter_max": 0.0424024508
        },
        "feet": {
            "estimated_diameter_min": 100.1244233463,
            "estimated_diameter_max": 223.8850168104
        }
    },
    "is_potentially_hazardous_asteroid": false,
    "close_approach_data": [
        {
            "close_approach_date": "1990-10-28",
            "close_approach_date_full": "1990-Oct-28 00:54",
            "epoch_date_close_approach": 657075240000,
            "relative_velocity": {
                "kilometers_per_second": "22.0152425811",
                "kilometers_per_hour": "79254.8732918992",
                "miles_per_hour": "49245.8961296248"
            },
            "miss_distance": {
                "astronomical": "0.1423445503",
                "lunar": "55.3720300667",
                "kilometers": "21294441.530987861",
                "miles": "13231752.4028440418"
            },
            "orbiting_body": "Venus"
        },
        {
            "close_approach_date": "2018-03-29",
            "close_approach_date_full": "2018-Mar-29 15:08",
            "epoch_date_close_approach": 1522336080000,
            "relative_velocity": {
                "kilometers_per_second": "20.668564232",
                "kilometers_per_hour": "74406.8312351197",
                "miles_per_hour": "46233.5113305109"
            },
            "miss_distance": {
                "astronomical": "0.0339271918",
                "lunar": "13.1976776102",
                "kilometers": "5075435.628361466",
                "miles": "3153729.4590855908"
            },
            "orbiting_body": "Earth"
        },
        {
            "close_approach_date": "2092-03-28",
            "close_approach_date_full": "2092-Mar-28 20:39",
            "epoch_date_close_approach": 3857575140000,
            "relative_velocity": {
                "kilometers_per_second": "20.9364304452",
                "kilometers_per_hour": "75371.1496026091",
                "miles_per_hour": "46832.701262799"
            },
            "miss_distance": {
                "astronomical": "0.0419347791",
                "lunar": "16.3126290699",
                "kilometers": "6273353.632280517",
                "miles": "3898081.1906724546"
            },
            "orbiting_body": "Earth"
        }
    ],
    "orbital_data": {
        "orbit_id": "6",
        "orbit_determination_date": "2018-04-13 06:28:58",
        "first_observation_date": "2018-03-20",
        "last_observation_date": "2018-03-30",
        "data_arc_in_days": 10,
        "observations_used": 31,
        "orbit_uncertainty": "8",
        "minimum_orbit_intersection": ".00788716",
        "jupiter_tisserand_invariant": "4.006",
        "epoch_osculation": "2458205.5",
        "eccentricity": ".6050948561181119",
        "semi_major_axis": "1.646765420813015",
        "inclination": "19.22132744989493",
        "ascending_node_longitude": "183.707421491017",
        "orbital_period": "771.8733300926658",
        "perihelion_distance": ".6503161354458817",
        "perihelion_argument": "92.43789212804333",
        "aphelion_distance": "2.643214706180148",
        "perihelion_time": "2458258.173699525958",
        "mean_anomaly": "335.4331039950968",
        "mean_motion": ".4663977701584545",
        "equinox": "J2000",
        "orbit_class": {
            "orbit_class_type": "APO",
            "orbit_class_description": "Near-Earth asteroid orbits which cross the Earth’s orbit similar to that of 1862 Apollo",
            "orbit_class_range": "a (semi-major axis) > 1.0 AU; q (perihelion) < 1.017 AU"
        }
    },
    "is_sentry_object": false
}